[{"OBJECT_NAME":"WORLDVIEW-2 (WV-2)","OBJECT_ID":"2009-055A","EPOCH":"2026-03-09T22:27:15.689664","MEAN_MOTION":14.37910721,"ECCENTRICITY":0.00050548,"INCLINATION":98.4692,"RA_OF_ASC_NODE":143.7977,"ARG_OF_PERICENTER":144.7175,"MEAN_ANOMALY":215.4347,"EPHEMERIS_TYPE":0,"CLASSIFICATION_TYPE":"U","NORAD_CAT_ID":35946,"ELEMENT_SET_NO":999,"REV_AT_EPOCH":86138,"BSTAR":7.9928144e-5,"MEAN_MOTION_DOT":1.98e-6,"MEAN_MOTION_DDOT":0},{"OBJECT_NAME":"FENGYUN 1C DEB","OBJECT_ID":"1999-025ENT","EPOCH":"2026-03-08T19:27:32.884128","MEAN_MOTION":14.34765758,"ECCENTRICITY":0.00566268,"INCLINATION":99.0397,"RA_OF_ASC_NODE":26.1509,"ARG_OF_PERICENTER":32.1032,"MEAN_ANOMALY":328.3579,"EPHEMERIS_TYPE":0,"CLASSIFICATION_TYPE":"U","NORAD_CAT_ID":37918,"ELEMENT_SET_NO":999,"REV_AT_EPOCH":4776,"BSTAR":0.0010682706,"MEAN_MOTION_DOT":3.037e-5,"MEAN_MOTION_DDOT":0}]
